[{"OBJECT_NAME":"UFO 10 (USA 146)","OBJECT_ID":"1999-063A","EPOCH":"2026-03-05T13:25:56.364096","MEAN_MOTION":1.00273577,"ECCENTRICITY":0.0005298,"INCLINATION":9.8499,"RA_OF_ASC_NODE":27.7851,"ARG_OF_PERICENTER":295.4637,"MEAN_ANOMALY":18.7027,"EPHEMERIS_TYPE":0,"CLASSIFICATION_TYPE":"U","NORAD_CAT_ID":25967,"ELEMENT_SET_NO":999,"REV_AT_EPOCH":9630,"BSTAR":0,"MEAN_MOTION_DOT":-1.92e-6,"MEAN_MOTION_DDOT":0},{"OBJECT_NAME":"ASIASTAR","OBJECT_ID":"2000-016A","EPOCH":"2026-03-05T23:03:10.917792","MEAN_MOTION":1.00271002,"ECCENTRICITY":0.0004601,"INCLINATION":8.8905,"RA_OF_ASC_NODE":59.2465,"ARG_OF_PERICENTER":295.9632,"MEAN_ANOMALY":259.2815,"EPHEMERIS_TYPE":0,"CLASSIFICATION_TYPE":"U","NORAD_CAT_ID":26107,"ELEMENT_SET_NO":999,"REV_AT_EPOCH":9488,"BSTAR":0,"MEAN_MOTION_DOT":-3.37e-6,"MEAN_MOTION_DDOT":0},{"OBJECT_NAME":"USA 149 (DSP 20)","OBJECT_ID":"2000-024A","EPOCH":"2026-03-06T01:11:26.113056","MEAN_MOTION":1.00277077,"ECCENTRICITY":0.00023115,"INCLINATION":13.093,"RA_OF_ASC_NODE":12.5762,"ARG_OF_PERICENTER":8.1503,"MEAN_ANOMALY":355.5636,"EPHEMERIS_TYPE":0,"CLASSIFICATION_TYPE":"U","NORAD_CAT_ID":26356,"ELEMENT_SET_NO":999,"REV_AT_EPOCH":3188,"BSTAR":0,"MEAN_MOTION_DOT":9.2e-7,"MEAN_MOTION_DDOT":0},{"OBJECT_NAME":"TDRS 8","OBJECT_ID":"2000-034A","EPOCH":"2026-03-05T21:14:51.305856","MEAN_MOTION":1.00276226,"ECCENTRICITY":0.00061468,"INCLINATION":12.5213,"RA_OF_ASC_NODE":32.1832,"ARG_OF_PERICENTER":308.7491,"MEAN_ANOMALY":226.1757,"EPHEMERIS_TYPE":0,"CLASSIFICATION_TYPE":"U","NORAD_CAT_ID":26388,"ELEMENT_SET_NO":999,"REV_AT_EPOCH":9414,"BSTAR":0,"MEAN_MOTION_DOT":-1.99e-6,"MEAN_MOTION_DDOT":0},{"OBJECT_NAME":"NSS-11","OBJECT_ID":"2000-059A","EPOCH":"2026-03-06T05:30:38.530368","MEAN_MOTION":1.002727,"ECCENTRICITY":0.00031726,"INCLINATION":1.8606,"RA_OF_ASC_NODE":82.649,"ARG_OF_PERICENTER":270.9226,"MEAN_ANOMALY":69.0344,"EPHEMERIS_TYPE":0,"CLASSIFICATION_TYPE":"U","NORAD_CAT_ID":26554,"ELEMENT_SET_NO":999,"REV_AT_EPOCH":4025,"BSTAR":0,"MEAN_MOTION_DOT":2.0e-7,"MEAN_MOTION_DDOT":0},{"OBJECT_NAME":"USA 153","OBJECT_ID":"2000-065A","EPOCH":"2026-03-06T06:02:28.205376","MEAN_MOTION":1.00269384,"ECCENTRICITY":0.00026602,"INCLINATION":11.4485,"RA_OF_ASC_NODE":36.257,"ARG_OF_PERICENTER":347.5056,"MEAN_ANOMALY":5.2118,"EPHEMERIS_TYPE":0,"CLASSIFICATION_TYPE":"U","NORAD_CAT_ID":26575,"ELEMENT_SET_NO":999,"REV_AT_EPOCH":3189,"BSTAR":0,"MEAN_MOTION_DOT":-3.28e-6,"MEAN_MOTION_DDOT":0},{"OBJECT_NAME":"AMC-6","OBJECT_ID":"2000-067A","EPOCH":"2026-03-06T05:23:21.094944","MEAN_MOTION":1.00272794,"ECCENTRICITY":0.00030911,"INCLINATION":0.0443,"RA_OF_ASC_NODE":308.8885,"ARG_OF_PERICENTER":40.6892,"MEAN_ANOMALY":120.1377,"EPHEMERIS_TYPE":0,"CLASSIFICATION_TYPE":"U","NORAD_CAT_ID":26580,"ELEMENT_SET_NO":999,"REV_AT_EPOCH":9286,"BSTAR":0,"MEAN_MOTION_DOT":8.3e-7,"MEAN_MOTION_DDOT":0},{"OBJECT_NAME":"USA 157 (MILSTAR-2 2)","OBJECT_ID":"2001-009A","EPOCH":"2026-03-06T01:15:48.193632","MEAN_MOTION":1.00267346,"ECCENTRICITY":0.00379212,"INCLINATION":11.4293,"RA_OF_ASC_NODE":20.392,"ARG_OF_PERICENTER":181.8138,"MEAN_ANOMALY":190.5527,"EPHEMERIS_TYPE":0,"CLASSIFICATION_TYPE":"U","NORAD_CAT_ID":26715,"ELEMENT_SET_NO":999,"REV_AT_EPOCH":3191,"BSTAR":0,"MEAN_MOTION_DOT":1.07e-6,"MEAN_MOTION_DDOT":0},{"OBJECT_NAME":"INTELSAT 10 (IS-10)","OBJECT_ID":"2001-019A","EPOCH":"2026-03-05T07:48:45.869760","MEAN_MOTION":0.99041792,"ECCENTRICITY":0.0005935,"INCLINATION":8.828,"RA_OF_ASC_NODE":60.3105,"ARG_OF_PERICENTER":267.1133,"MEAN_ANOMALY":91.9502,"EPHEMERIS_TYPE":0,"CLASSIFICATION_TYPE":"U","NORAD_CAT_ID":26766,"ELEMENT_SET_NO":999,"REV_AT_EPOCH":4454,"BSTAR":0,"MEAN_MOTION_DOT":-2.88e-6,"MEAN_MOTION_DDOT":0},{"OBJECT_NAME":"USA 159 (DSP 21)","OBJECT_ID":"2001-033A","EPOCH":"2026-03-05T04:30:26.664768","MEAN_MOTION":1.00279118,"ECCENTRICITY":0.0002002,"INCLINATION":12.6899,"RA_OF_ASC_NODE":17.164,"ARG_OF_PERICENTER":244.3968,"MEAN_ANOMALY":280.0364,"EPHEMERIS_TYPE":0,"CLASSIFICATION_TYPE":"U","NORAD_CAT_ID":26880,"ELEMENT_SET_NO":999,"REV_AT_EPOCH":3192,"BSTAR":0,"MEAN_MOTION_DOT":-3.02e-6,"MEAN_MOTION_DDOT":0},{"OBJECT_NAME":"INTELSAT 902 (IS-902)","OBJECT_ID":"2001-039A","EPOCH":"2026-03-05T22:19:00.154560","MEAN_MOTION":1.0027199,"ECCENTRICITY":0.00046027,"INCLINATION":5.8564,"RA_OF_ASC_NODE":73.0406,"ARG_OF_PERICENTER":273.894,"MEAN_ANOMALY":101.3804,"EPHEMERIS_TYPE":0,"CLASSIFICATION_TYPE":"U","NORAD_CAT_ID":26900,"ELEMENT_SET_NO":999,"REV_AT_EPOCH":8966,"BSTAR":0,"MEAN_MOTION_DOT":-2.87e-6,"MEAN_MOTION_DDOT":0},{"OBJECT_NAME":"USA 164 (MILSTAR-2 3)","OBJECT_ID":"2002-001A","EPOCH":"2026-03-06T02:03:58.574304","MEAN_MOTION":1.00270511,"ECCENTRICITY":0.00996088,"INCLINATION":11.0573,"RA_OF_ASC_NODE":22.5213,"ARG_OF_PERICENTER":4.8562,"MEAN_ANOMALY":186.3454,"EPHEMERIS_TYPE":0,"CLASSIFICATION_TYPE":"U","NORAD_CAT_ID":27168,"ELEMENT_SET_NO":999,"REV_AT_EPOCH":3192,"BSTAR":0,"MEAN_MOTION_DOT":9.4e-7,"MEAN_MOTION_DDOT":0},{"OBJECT_NAME":"INTELSAT 904 (IS-904)","OBJECT_ID":"2002-007A","EPOCH":"2026-03-05T07:00:05.535936","MEAN_MOTION":1.00273205,"ECCENTRICITY":0.0006148,"INCLINATION":6.6608,"RA_OF_ASC_NODE":70.43,"ARG_OF_PERICENTER":306.2151,"MEAN_ANOMALY":219.9159,"EPHEMERIS_TYPE":0,"CLASSIFICATION_TYPE":"U","NORAD_CAT_ID":27380,"ELEMENT_SET_NO":999,"REV_AT_EPOCH":5072,"BSTAR":0,"MEAN_MOTION_DOT":-2.31e-6,"MEAN_MOTION_DDOT":0},{"OBJECT_NAME":"DIRECTV 5 (TEMPO 1)","OBJECT_ID":"2002-023A","EPOCH":"2026-03-06T03:09:59.743008","MEAN_MOTION":1.00272618,"ECCENTRICITY":0.00036449,"INCLINATION":4.6147,"RA_OF_ASC_NODE":76.5984,"ARG_OF_PERICENTER":279.5674,"MEAN_ANOMALY":105.0863,"EPHEMERIS_TYPE":0,"CLASSIFICATION_TYPE":"U","NORAD_CAT_ID":27426,"ELEMENT_SET_NO":999,"REV_AT_EPOCH":8709,"BSTAR":0,"MEAN_MOTION_DOT":-6.1e-7,"MEAN_MOTION_DDOT":0},{"OBJECT_NAME":"INTELSAT 905 (IS-905)","OBJECT_ID":"2002-027A","EPOCH":"2026-03-05T04:29:38.664384","MEAN_MOTION":1.00273968,"ECCENTRICITY":0.00031737,"INCLINATION":6.4927,"RA_OF_ASC_NODE":71.0512,"ARG_OF_PERICENTER":279.539,"MEAN_ANOMALY":102.5539,"EPHEMERIS_TYPE":0,"CLASSIFICATION_TYPE":"U","NORAD_CAT_ID":27438,"ELEMENT_SET_NO":999,"REV_AT_EPOCH":5032,"BSTAR":0,"MEAN_MOTION_DOT":8.8e-7,"MEAN_MOTION_DDOT":0},{"OBJECT_NAME":"GALAXY 3C (G-3C)","OBJECT_ID":"2002-030A","EPOCH":"2026-03-06T04:56:56.986368","MEAN_MOTION":1.0027189,"ECCENTRICITY":0.00011541,"INCLINATION":3.4686,"RA_OF_ASC_NODE":79.4341,"ARG_OF_PERICENTER":23.7034,"MEAN_ANOMALY":40.189,"EPHEMERIS_TYPE":0,"CLASSIFICATION_TYPE":"U","NORAD_CAT_ID":27445,"ELEMENT_SET_NO":999,"REV_AT_EPOCH":4546,"BSTAR":0,"MEAN_MOTION_DOT":-1.57e-6,"MEAN_MOTION_DDOT":0},{"OBJECT_NAME":"INTELSAT 906 (IS-906)","OBJECT_ID":"2002-041A","EPOCH":"2026-03-06T03:59:39.979680","MEAN_MOTION":1.00273082,"ECCENTRICITY":0.00032001,"INCLINATION":5.5407,"RA_OF_ASC_NODE":74.1878,"ARG_OF_PERICENTER":260.5331,"MEAN_ANOMALY":313.2446,"EPHEMERIS_TYPE":0,"CLASSIFICATION_TYPE":"U","NORAD_CAT_ID":27513,"ELEMENT_SET_NO":999,"REV_AT_EPOCH":8599,"BSTAR":0,"MEAN_MOTION_DOT":9.0e-8,"MEAN_MOTION_DDOT":0}]
